{"type": "FeatureCollection", "features": [{"type": "Feature", "properties": {"norad_id": 25590, "name": "COSMOS 2361", "group": "musson", "lat": 33.5513271890114, "lon": 165.5973414796565, "alt_km": 1003.8674844469051, "timestamp": "2025-12-04T07:39:36.406055+00:00", "meta": {"OBJECT_NAME": "COSMOS 2361", "OBJECT_ID": "1998-076A", "EPOCH": "2025-12-03T14:03:29.613024", "MEAN_MOTION": 13.73215969, "ECCENTRICITY": 0.00301558, "INCLINATION": 82.9342, "RA_OF_ASC_NODE": 350.8575, "ARG_OF_PERICENTER": 292.187, "MEAN_ANOMALY": 190.4432, "EPHEMERIS_TYPE": 0, "CLASSIFICATION_TYPE": "U", "NORAD_CAT_ID": 25590, "ELEMENT_SET_NO": 999, "REV_AT_EPOCH": 34985, "BSTAR": 8.9609109e-05, "MEAN_MOTION_DOT": 9.8e-07, "MEAN_MOTION_DDOT": 0}, "tle": {"line1": "1 25590U 98076A   25337.58575941  .00000098  00000+0  89609-4 0  9997", "line2": "2 25590  82.9342 350.8575 0030155 292.1870 190.4432 13.73215969349855"}}, "geometry": {"type": "Point", "coordinates": [165.5973414796565, 33.5513271890114]}}, {"type": "Feature", "properties": {"norad_id": 26818, "name": "COSMOS 2378", "group": "musson", "lat": -10.708280697231134, "lon": -172.68578678344994, "alt_km": 970.4309034943035, "timestamp": "2025-12-04T07:39:36.406073+00:00", "meta": {"OBJECT_NAME": "COSMOS 2378", "OBJECT_ID": "2001-023A", "EPOCH": "2025-12-03T21:05:46.153824", "MEAN_MOTION": 13.74140869, "ECCENTRICITY": 0.00319386, "INCLINATION": 82.9279, "RA_OF_ASC_NODE": 6.2953, "ARG_OF_PERICENTER": 230.1645, "MEAN_ANOMALY": 304.508, "EPHEMERIS_TYPE": 0, "CLASSIFICATION_TYPE": "U", "NORAD_CAT_ID": 26818, "ELEMENT_SET_NO": 999, "REV_AT_EPOCH": 22801, "BSTAR": 9.0272101e-05, "MEAN_MOTION_DOT": 1e-06, "MEAN_MOTION_DDOT": 0}, "tle": {"line1": "1 26818U 01023A   25337.87900641  .00000100  00000+0  90272-4 0  9990", "line2": "2 26818  82.9279   6.2953 0031938 230.1645 304.5080 13.74140869228010"}}, "geometry": {"type": "Point", "coordinates": [-172.68578678344994, -10.708280697231134]}}, {"type": "Feature", "properties": {"norad_id": 27436, "name": "COSMOS 2389", "group": "musson", "lat": 6.485866634462981, "lon": -45.974672309873625, "alt_km": 975.035423035788, "timestamp": "2025-12-04T07:39:36.406084+00:00", "meta": {"OBJECT_NAME": "COSMOS 2389", "OBJECT_ID": "2002-026A", "EPOCH": "2025-12-03T21:26:33.135648", "MEAN_MOTION": 13.75153243, "ECCENTRICITY": 0.0047773, "INCLINATION": 82.9495, "RA_OF_ASC_NODE": 313.5343, "ARG_OF_PERICENTER": 84.7704, "MEAN_ANOMALY": 335.9901, "EPHEMERIS_TYPE": 0, "CLASSIFICATION_TYPE": "U", "NORAD_CAT_ID": 27436, "ELEMENT_SET_NO": 999, "REV_AT_EPOCH": 18027, "BSTAR": 7.6760489e-05, "MEAN_MOTION_DOT": 9e-07, "MEAN_MOTION_DDOT": 0}, "tle": {"line1": "1 27436U 02026A   25337.89343907  .00000090  00000+0  76760-4 0  9993", "line2": "2 27436  82.9495 313.5343 0047773  84.7704 335.9901 13.75153243180273"}}, "geometry": {"type": "Point", "coordinates": [-45.974672309873625, 6.485866634462981]}}, {"type": "Feature", "properties": {"norad_id": 27818, "name": "COSMOS 2398", "group": "musson", "lat": 42.82275054612371, "lon": -74.50860280307722, "alt_km": 987.8166718373068, "timestamp": "2025-12-04T07:39:36.406094+00:00", "meta": {"OBJECT_NAME": "COSMOS 2398", "OBJECT_ID": "2003-023A", "EPOCH": "2025-12-03T21:12:51.292800", "MEAN_MOTION": 13.72384416, "ECCENTRICITY": 0.00322443, "INCLINATION": 82.9476, "RA_OF_ASC_NODE": 279.2246, "ARG_OF_PERICENTER": 135.5715, "MEAN_ANOMALY": 278.9534, "EPHEMERIS_TYPE": 0, "CLASSIFICATION_TYPE": "U", "NORAD_CAT_ID": 27818, "ELEMENT_SET_NO": 999, "REV_AT_EPOCH": 12695, "BSTAR": 5.941652e-05, "MEAN_MOTION_DOT": 7e-07, "MEAN_MOTION_DDOT": 0}, "tle": {"line1": "1 27818U 03023A   25337.88392700  .00000070  00000+0  59417-4 0  9997", "line2": "2 27818  82.9476 279.2246 0032244 135.5715 278.9534 13.72384416126958"}}, "geometry": {"type": "Point", "coordinates": [-74.50860280307722, 42.82275054612371]}}, {"type": "Feature", "properties": {"norad_id": 28380, "name": "COSMOS 2407", "group": "musson", "lat": 58.41364929198991, "lon": 27.5353811326161, "alt_km": 949.5582491405958, "timestamp": "2025-12-04T07:39:36.406104+00:00", "meta": {"OBJECT_NAME": "COSMOS 2407", "OBJECT_ID": "2004-028A", "EPOCH": "2025-12-03T19:12:08.773920", "MEAN_MOTION": 13.76312141, "ECCENTRICITY": 0.00405254, "INCLINATION": 82.9613, "RA_OF_ASC_NODE": 219.5109, "ARG_OF_PERICENTER": 79.0926, "MEAN_ANOMALY": 351.011, "EPHEMERIS_TYPE": 0, "CLASSIFICATION_TYPE": "U", "NORAD_CAT_ID": 28380, "ELEMENT_SET_NO": 999, "REV_AT_EPOCH": 7300, "BSTAR": 9.9856988e-05, "MEAN_MOTION_DOT": 1.14e-06, "MEAN_MOTION_DDOT": 0}, "tle": {"line1": "1 28380U 04028A   25337.80010155  .00000114  00000+0  99857-4 0  9992", "line2": "2 28380  82.9613 219.5109 0040525  79.0926 351.0110 13.76312141 73008"}}, "geometry": {"type": "Point", "coordinates": [27.5353811326161, 58.41364929198991]}}, {"type": "Feature", "properties": {"norad_id": 28521, "name": "COSMOS 2414", "group": "musson", "lat": 32.371440766748336, "lon": -164.47380366685863, "alt_km": 953.1716834927265, "timestamp": "2025-12-04T07:39:36.406114+00:00", "meta": {"OBJECT_NAME": "COSMOS 2414", "OBJECT_ID": "2005-002A", "EPOCH": "2025-12-03T17:39:37.668096", "MEAN_MOTION": 13.87901131, "ECCENTRICITY": 0.00403428, "INCLINATION": 82.9499, "RA_OF_ASC_NODE": 191.468, "ARG_OF_PERICENTER": 164.9748, "MEAN_ANOMALY": 195.2625, "EPHEMERIS_TYPE": 0, "CLASSIFICATION_TYPE": "U", "NORAD_CAT_ID": 28521, "ELEMENT_SET_NO": 999, "REV_AT_EPOCH": 5670, "BSTAR": 9.3001106e-05, "MEAN_MOTION_DOT": 1.27e-06, "MEAN_MOTION_DDOT": 0}, "tle": {"line1": "1 28521U 05002A   25337.73585264  .00000127  00000+0  93001-4 0  9991", "line2": "2 28521  82.9499 191.4680 0040342 164.9748 195.2625 13.87901131 56704"}}, "geometry": {"type": "Point", "coordinates": [-164.47380366685863, 32.371440766748336]}}, {"type": "Feature", "properties": {"norad_id": 32052, "name": "COSMOS 2429", "group": "musson", "lat": -13.554257766155732, "lon": 171.2191587934134, "alt_km": 1005.3899475988092, "timestamp": "2025-12-04T07:39:36.406124+00:00", "meta": {"OBJECT_NAME": "COSMOS 2429", "OBJECT_ID": "2007-038A", "EPOCH": "2025-12-03T18:30:05.943168", "MEAN_MOTION": 13.75148037, "ECCENTRICITY": 0.00396129, "INCLINATION": 82.9805, "RA_OF_ASC_NODE": 349.9211, "ARG_OF_PERICENTER": 62.2611, "MEAN_ANOMALY": 298.2554, "EPHEMERIS_TYPE": 0, "CLASSIFICATION_TYPE": "U", "NORAD_CAT_ID": 32052, "ELEMENT_SET_NO": 999, "REV_AT_EPOCH": 91479, "BSTAR": 6.8666753e-05, "MEAN_MOTION_DOT": 8.2e-07, "MEAN_MOTION_DDOT": 0}, "tle": {"line1": "1 32052U 07038A   25337.77090212  .00000082  00000+0  68667-4 0  9994", "line2": "2 32052  82.9805 349.9211 0039612  62.2611 298.2554 13.75148037914798"}}, "geometry": {"type": "Point", "coordinates": [171.2191587934134, -13.554257766155732]}}, {"type": "Feature", "properties": {"norad_id": 35635, "name": "COSMOS 2454", "group": "musson", "lat": 21.470938646410126, "lon": 177.81560833826498, "alt_km": 924.6153638620981, "timestamp": "2025-12-04T07:39:36.406133+00:00", "meta": {"OBJECT_NAME": "COSMOS 2454", "OBJECT_ID": "2009-039A", "EPOCH": "2025-12-03T19:30:48.530880", "MEAN_MOTION": 13.89926825, "ECCENTRICITY": 0.00204847, "INCLINATION": 82.9556, "RA_OF_ASC_NODE": 175.4117, "ARG_OF_PERICENTER": 97.6074, "MEAN_ANOMALY": 273.3744, "EPHEMERIS_TYPE": 0, "CLASSIFICATION_TYPE": "U", "NORAD_CAT_ID": 35635, "ELEMENT_SET_NO": 999, "REV_AT_EPOCH": 83026, "BSTAR": 7.2784896e-05, "MEAN_MOTION_DOT": 1.06e-06, "MEAN_MOTION_DDOT": 0}, "tle": {"line1": "1 35635U 09039A   25337.81306170  .00000106  00000+0  72785-4 0  9998", "line2": "2 35635  82.9556 175.4117 0020484  97.6074 273.3744 13.89926825830268"}}, "geometry": {"type": "Point", "coordinates": [177.81560833826498, 21.470938646410126]}}, {"type": "Feature", "properties": {"norad_id": 36519, "name": "COSMOS 2463", "group": "musson", "lat": -73.72796629770555, "lon": -122.06227381075605, "alt_km": 986.8345152839684, "timestamp": "2025-12-04T07:39:36.406143+00:00", "meta": {"OBJECT_NAME": "COSMOS 2463", "OBJECT_ID": "2010-017A", "EPOCH": "2025-12-03T16:58:14.708352", "MEAN_MOTION": 13.71647895, "ECCENTRICITY": 0.00350995, "INCLINATION": 82.9621, "RA_OF_ASC_NODE": 33.3498, "ARG_OF_PERICENTER": 313.9615, "MEAN_ANOMALY": 161.0406, "EPHEMERIS_TYPE": 0, "CLASSIFICATION_TYPE": "U", "NORAD_CAT_ID": 36519, "ELEMENT_SET_NO": 999, "REV_AT_EPOCH": 78113, "BSTAR": 8.2612054e-05, "MEAN_MOTION_DOT": 9e-07, "MEAN_MOTION_DDOT": 0}, "tle": {"line1": "1 36519U 10017A   25337.70711468  .00000090  00000+0  82612-4 0  9998", "line2": "2 36519  82.9621  33.3498 0035099 313.9615 161.0406 13.71647895781137"}}, "geometry": {"type": "Point", "coordinates": [-122.06227381075605, -73.72796629770555]}}]}